[{"estimated_diameter":{"feet":{"estimated_diameter_max":3236.1230737181,"estimated_diameter_min":1447.2382352778},"kilometers":{"estimated_diameter_max":0.9863702813,"estimated_diameter_min":0.4411182},"meters":{"estimated_diameter_max":986.3702813054,"estimated_diameter_min":441.1181999969},"miles":{"estimated_diameter_max":0.6129018881,"estimated_diameter_min":0.2740980571}},"neo_reference_id":"2435730","nasa_jpl_url":"http:\/\/ssd.jpl.nasa.gov\/sbdb.cgi?sstr=2435730","is_potentially_hazardous_asteroid":false,"orbital_data":{"inclination":"34.65524087548136","mean_anomaly":"193.6073993558566","orbit_determination_date":"2017-04-12 06:15:44","minimum_orbit_intersection":".562024","perihelion_argument":"91.37395287853596","orbit_class":{"orbit_class_description":"Near-Earth asteroid orbits similar to that of 1221 Amor","orbit_class_range":"1.017 AU < q (perihelion) < 1.3 AU","orbit_class_type":"AMO"},"last_observation_date":"2015-06-08","eccentricity":".3712689877166617","perihelion_distance":"1.259647403550848","aphelion_distance":"2.747304310111994","perihelion_time":"2459079.247044206401","first_observation_date":"2007-08-15","orbit_id":"21","data_arc_in_days":2854,"jupiter_tisserand_invariant":"3.545","semi_major_axis":"2.003475856831421","orbital_period":"1035.796875865287","epoch_osculation":"2458600.5","orbit_uncertainty":"1","ascending_node_longitude":"48.8218141100409","mean_motion":".3475584918126559","observations_used":62,"equinox":"J2000"},"is_sentry_object":false,"name":"435730 (2008 UK90)","absolute_magnitude_h":18.9,"links":{"self":"http:\/\/www.neowsapp.com\/rest\/v1\/neo\/2435730"},"id":"2435730","designation":"435730","close_approach_data":[]},{"estimated_diameter":{"feet":{"estimated_diameter_max":2818.5453698252,"estimated_diameter_min":1260.4918089193},"kilometers":{"estimated_diameter_max":0.8590926012,"estimated_diameter_min":0.3841978911},"meters":{"estimated_diameter_max":859.0926012318,"estimated_diameter_min":384.1978910643},"miles":{"estimated_diameter_max":0.5338152287,"estimated_diameter_min":0.2387294278}},"neo_reference_id":"2451297","nasa_jpl_url":"http:\/\/ssd.jpl.nasa.gov\/sbdb.cgi?sstr=2451297","is_potentially_hazardous_asteroid":true,"orbital_data":{"inclination":"30.80179064946347","mean_anomaly":"246.5809572989135","orbit_determination_date":"2017-04-06 09:20:08","minimum_orbit_intersection":".0138983","perihelion_argument":"222.9528375699591","orbit_class":{"orbit_class_description":"Near-Earth asteroid orbits which cross the Earth\u2019s orbit similar to that of 1862 Apollo","orbit_class_range":"a (semi-major axis) > 1.0 AU; q (perihelion) < 1.017 AU","orbit_class_type":"APO"},"last_observation_date":"2015-11-09","eccentricity":".4951687211553038","perihelion_distance":".9291339813497091","aphelion_distance":"2.751834374953519","perihelion_time":"2458887.829380171751","first_observation_date":"2010-10-08","orbit_id":"24","data_arc_in_days":1858,"jupiter_tisserand_invariant":"3.715","semi_major_axis":"1.840484178151614","orbital_period":"912.0036141941391","epoch_osculation":"2458600.5","orbit_uncertainty":"1","ascending_node_longitude":"28.17719239723301","mean_motion":".3947352777961321","observations_used":69,"equinox":"J2000"},"is_sentry_object":false,"name":"451297 (2010 TK54)","absolute_magnitude_h":19.2,"links":{"self":"http:\/\/www.neowsapp.com\/rest\/v1\/neo\/2451297"},"id":"2451297","designation":"451297","close_approach_data":[]},{"estimated_diameter":{"feet":{"estimated_diameter_max":4266.0410487267,"estimated_diameter_min":1907.8315559515},"kilometers":{"estimated_diameter_max":1.30028927,"estimated_diameter_min":0.5815070396},"meters":{"estimated_diameter_max":1300.2892700427,"estimated_diameter_min":581.5070396458},"miles":{"estimated_diameter_max":0.807962044,"estimated_diameter_min":0.3613316107}},"neo_reference_id":"2452307","is_potentially_hazardous_asteroid":false,"is_sentry_object":false,"nasa_jpl_url":"http:\/\/ssd.jpl.nasa.gov\/sbdb.cgi?sstr=2452307","orbital_data":{"inclination":"44.26720347007133","mean_anomaly":"84.51322090313104","orbit_determination_date":"2019-07-01 06:03:30","minimum_orbit_intersection":".5836","perihelion_argument":"270.1971711932858","orbit_class":{"orbit_class_description":"Near-Earth asteroid orbits similar to that of 1221 Amor","orbit_class_range":"1.017 AU < q (perihelion) < 1.3 AU","orbit_class_type":"AMO"},"last_observation_date":"2019-06-30","eccentricity":".3177875154872554","perihelion_distance":"1.273946913511198","aphelion_distance":"2.460804186568969","perihelion_time":"2458381.689538602796","first_observation_date":"1997-12-05","orbit_id":"43","data_arc_in_days":7877,"jupiter_tisserand_invariant":"3.600","semi_major_axis":"1.867375550040083","orbital_period":"932.0644185751901","epoch_osculation":"2458600.5","orbit_uncertainty":"0","ascending_node_longitude":"241.253799704634","mean_motion":".3862393980775682","observations_used":135,"equinox":"J2000"},"name_limited":"Manawydan","name":"452307 Manawydan (1997 XV11)","absolute_magnitude_h":18.3,"links":{"self":"http:\/\/www.neowsapp.com\/rest\/v1\/neo\/2452307"},"id":"2452307","designation":"452307","close_approach_data":[]},{"estimated_diameter":{"feet":{"estimated_diameter_max":4074.0375731972,"estimated_diameter_min":1821.9649913114},"kilometers":{"estimated_diameter_max":1.2417666126,"estimated_diameter_min":0.5553349116},"meters":{"estimated_diameter_max":1241.766612574,"estimated_diameter_min":555.334911581},"miles":{"estimated_diameter_max":0.7715977618,"estimated_diameter_min":0.3450690093}},"neo_reference_id":"2452421","nasa_jpl_url":"http:\/\/ssd.jpl.nasa.gov\/sbdb.cgi?sstr=2452421","is_potentially_hazardous_asteroid":false,"orbital_data":{"inclination":"24.49707891155159","mean_anomaly":"278.8064046193081","orbit_determination_date":"2017-04-06 09:20:05","minimum_orbit_intersection":".516497","perihelion_argument":"259.9112168122566","orbit_class":{"orbit_class_description":"Near-Earth asteroid orbits similar to that of 1221 Amor","orbit_class_range":"1.017 AU < q (perihelion) < 1.3 AU","orbit_class_type":"AMO"},"last_observation_date":"2016-04-25","eccentricity":".5118237131259108","perihelion_distance":"1.285150769340315","aphelion_distance":"3.979958593383738","perihelion_time":"2458952.371263395174","first_observation_date":"2002-11-01","orbit_id":"33","data_arc_in_days":4924,"jupiter_tisserand_invariant":"3.089","semi_major_axis":"2.632554681362027","orbital_period":"1560.143435308272","epoch_osculation":"2458600.5","orbit_uncertainty":"0","ascending_node_longitude":"234.321242747855","mean_motion":".2307480144791089","observations_used":117,"equinox":"J2000"},"is_sentry_object":false,"name":"452421 (2002 VX99)","absolute_magnitude_h":18.4,"links":{"self":"http:\/\/www.neowsapp.com\/rest\/v1\/neo\/2452421"},"id":"2452421","designation":"452421","close_approach_data":[]},{"estimated_diameter":{"feet":{"estimated_diameter_max":3236.1230737181,"estimated_diameter_min":1447.2382352778},"kilometers":{"estimated_diameter_max":0.9863702813,"estimated_diameter_min":0.4411182},"meters":{"estimated_diameter_max":986.3702813054,"estimated_diameter_min":441.1181999969},"miles":{"estimated_diameter_max":0.6129018881,"estimated_diameter_min":0.2740980571}},"neo_reference_id":"2453100","nasa_jpl_url":"http:\/\/ssd.jpl.nasa.gov\/sbdb.cgi?sstr=2453100","is_potentially_hazardous_asteroid":false,"orbital_data":{"inclination":"29.22466722555764","mean_anomaly":"314.7727218748878","orbit_determination_date":"2017-04-06 09:20:04","minimum_orbit_intersection":".508831","perihelion_argument":"283.1952924478068","orbit_class":{"orbit_class_description":"Near-Earth asteroid orbits similar to that of 1221 Amor","orbit_class_range":"1.017 AU < q (perihelion) < 1.3 AU","orbit_class_type":"AMO"},"last_observation_date":"2016-01-01","eccentricity":".5062182854280478","perihelion_distance":"1.261959535907298","aphelion_distance":"3.849446976993899","perihelion_time":"2458787.983053150397","first_observation_date":"2007-11-19","orbit_id":"31","data_arc_in_days":2965,"jupiter_tisserand_invariant":"3.091","semi_major_axis":"2.555703256450598","orbital_period":"1492.327239933268","epoch_osculation":"2458600.5","orbit_uncertainty":"0","ascending_node_longitude":"66.99544745870743","mean_motion":".2412339534967531","observations_used":98,"equinox":"J2000"},"is_sentry_object":false,"name":"453100 (2007 WU4)","absolute_magnitude_h":18.9,"links":{"self":"http:\/\/www.neowsapp.com\/rest\/v1\/neo\/2453100"},"id":"2453100","designation":"453100","close_approach_data":[]}]
